[
    {
        "Altitude(m)": 610399.5113779067,
        "Argument of Periapsis(deg)": 0.0,
        "Eccentricity": 0.0,
        "Inclination(deg)": 60.0,
        "Latitude(deg)": 52.11128677552466,
        "Longitude(deg)": -127.4156144032934,
        "Mean Anomaly(deg)": 65.45449999999998,
        "RAAN(deg)": 285.0,
        "Satellite Name": "Test1 1258",
        "Satellite Number": 1258,
        "Semi-Major Axis(m)": 6980739.136638005,
        "Time(s)": 0
    },
    {
        "Altitude(m)": 610481.6622145845,
        "Argument of Periapsis(deg)": 0.00010418945913296404,
        "Eccentricity": 0.0,
        "Inclination(deg)": 60.0,
        "Latitude(deg)": 52.47088818608405,
        "Longitude(deg)": -126.63347800150507,
        "Mean Anomaly(deg)": 66.07460614546183,
        "RAAN(deg)": 284.9995799508602,
        "Satellite Name": "Test1 1258",
        "Satellite Number": 1258,
        "Semi-Major Axis(m)": 6980739.136638005,
        "Time(s)": 10
    }
]